{"type":"FeatureCollection","features":[
{"type":"Feature","properties":{"code":"75105","libelle":"Paris 5e"},"geometry":{"type":"Polygon","coordinates":[[[2.34209,48.83834],[2.3397,48.83886],[2.33666,48.83967],[2.33677,48.84075],[2.33708,48.84078],[2.33726,48.84088],[2.3382,48.84251],[2.34048,48.84671],[2.34263,48.85035],[2.34319,48.85139],[2.34428,48.85376],[2.34463,48.85409],[2.34539,48.85381],[2.34667,48.8534],[2.34902,48.85236],[2.35001,48.85205],[2.35125,48.85169],[2.35394,48.85116],[2.3546,48.85099],[2.35861,48.8497],[2.35931,48.84943],[2.36106,48.84856],[2.36226,48.84781],[2.36609,48.84497],[2.36513,48.84441],[2.36416,48.84319],[2.36287,48.8414],[2.36175,48.83994],[2.35187,48.83681],[2.35069,48.83689],[2.34701,48.83732],[2.34209,48.83834]]]}},
{"type":"Feature","properties":{"code":"75106","libelle":"Paris 6e"},"geometry":{"type":"Polygon","coordinates":[[[2.33292,48.85934],[2.33639,48.85863],[2.33767,48.85831],[2.34057,48.85668],[2.34137,48.85613],[2.34176,48.85573],[2.34251,48.8551],[2.34293,48.85483],[2.34411,48.85428],[2.34463,48.85409],[2.34428,48.85376],[2.34319,48.85139],[2.34263,48.85035],[2.34048,48.84671],[2.3382,48.84251],[2.33726,48.84088],[2.33708,48.84078],[2.33677,48.84075],[2.33666,48.83967],[2.33133,48.84141],[2.32867,48.84231],[2.31989,48.84517],[2.31914,48.84552],[2.31698,48.84664],[2.31671,48.84686],[2.31942,48.84786],[2.32294,48.84966],[2.32416,48.85024],[2.32688,48.85136],[2.32681,48.85158],[2.32866,48.85187],[2.32866,48.85206],[2.32934,48.85264],[2.33046,48.85447],[2.33073,48.85506],[2.33167,48.85632],[2.33327,48.85829],[2.33245,48.85853],[2.33292,48.85934]]]}},
{"type":"Feature","properties":{"code":"75113","libelle":"Paris 13e"},"geometry":{"type":"Polygon","coordinates":[[[2.36609,48.84497],[2.37174,48.84073],[2.37355,48.83933],[2.37532,48.83761],[2.37836,48.83502],[2.38431,48.83031],[2.38851,48.82674],[2.39007,48.82569],[2.38944,48.82535],[2.38694,48.82446],[2.38523,48.82373],[2.38152,48.82241],[2.38077,48.8217],[2.37459,48.81968],[2.37261,48.81907],[2.3671,48.8173],[2.36333,48.81615],[2.35585,48.81592],[2.35473,48.81681],[2.35239,48.81855],[2.35125,48.81796],[2.34876,48.81686],[2.34718,48.8161],[2.34692,48.81602],[2.34663,48.81599],[2.34519,48.81609],[2.34476,48.81607],[2.34436,48.81602],[2.34445,48.81556],[2.3439,48.81577],[2.34413,48.81777],[2.34455,48.81925],[2.34459,48.81956],[2.34381,48.82043],[2.34249,48.82147],[2.3418,48.82253],[2.34149,48.82358],[2.34146,48.82385],[2.3416,48.82514],[2.34158,48.8253],[2.34171,48.82619],[2.3418,48.82645],[2.34159,48.82649],[2.34164,48.82768],[2.3416,48.82835],[2.34136,48.82942],[2.34126,48.83059],[2.34125,48.83159],[2.34107,48.83197],[2.34159,48.83482],[2.34209,48.83834],[2.34701,48.83732],[2.35069,48.83689],[2.35187,48.83681],[2.36175,48.83994],[2.36287,48.8414],[2.36416,48.84319],[2.36513,48.84441],[2.36609,48.84497]]]}},
{"type":"Feature","properties":{"code":"75114","libelle":"Paris 14e"},"geometry":{"type":"Polygon","coordinates":[[[2.33666,48.83967],[2.3397,48.83886],[2.34209,48.83834],[2.34159,48.83482],[2.34107,48.83197],[2.34125,48.83159],[2.34126,48.83059],[2.34136,48.82942],[2.3416,48.82835],[2.34164,48.82768],[2.34159,48.82649],[2.3418,48.82645],[2.34171,48.82619],[2.34158,48.8253],[2.3416,48.82514],[2.34146,48.82385],[2.34149,48.82358],[2.3418,48.82253],[2.34249,48.82147],[2.34381,48.82043],[2.34459,48.81956],[2.34455,48.81925],[2.34413,48.81777],[2.3439,48.81577],[2.34316,48.81605],[2.34168,48.81633],[2.33954,48.81644],[2.33371,48.81677],[2.3319,48.81701],[2.33246,48.81825],[2.30132,48.82513],[2.30693,48.82982],[2.30714,48.83018],[2.31186,48.83402],[2.31302,48.83495],[2.31483,48.8363],[2.31988,48.84054],[2.32139,48.83978],[2.32184,48.8401],[2.32147,48.84097],[2.32153,48.84108],[2.32424,48.84326],[2.32464,48.84362],[2.33666,48.83967]]]}},
{"type":"Feature","properties":{"code":"94041","libelle":"Ivry-sur-Seine"},"geometry":{"type":"Polygon","coordinates":[[[2.4094,48.81656],[2.40974,48.81626],[2.40997,48.81591],[2.41019,48.81526],[2.41027,48.81454],[2.41017,48.81354],[2.40997,48.8125],[2.40964,48.81139],[2.40901,48.80852],[2.40415,48.80812],[2.40522,48.80479],[2.4052,48.80458],[2.40497,48.80428],[2.40437,48.8045],[2.40395,48.80447],[2.40227,48.8043],[2.40222,48.80404],[2.40065,48.80403],[2.40039,48.80454],[2.3997,48.80432],[2.39956,48.80419],[2.39947,48.80373],[2.39843,48.80181],[2.39829,48.80172],[2.39743,48.80242],[2.39711,48.80229],[2.39631,48.80134],[2.39559,48.8007],[2.39462,48.79992],[2.39428,48.80003],[2.39383,48.80036],[2.39361,48.80057],[2.39339,48.80053],[2.39311,48.80037],[2.39271,48.80044],[2.39174,48.7993],[2.39075,48.7998],[2.39034,48.79989],[2.38999,48.80011],[2.38964,48.80017],[2.38913,48.80006],[2.38889,48.80032],[2.38861,48.80045],[2.3869,48.80037],[2.38679,48.80049],[2.38661,48.80102],[2.38565,48.80432],[2.38293,48.80342],[2.3826,48.80327],[2.38212,48.80302],[2.38127,48.80246],[2.37929,48.80145],[2.37638,48.80518],[2.37579,48.80601],[2.3712,48.80403],[2.37029,48.80498],[2.37039,48.80504],[2.36996,48.80527],[2.36842,48.80683],[2.36789,48.80743],[2.36715,48.80809],[2.3682,48.8085],[2.36794,48.80886],[2.36544,48.80916],[2.36548,48.80922],[2.36422,48.81115],[2.36459,48.81142],[2.36507,48.81162],[2.36624,48.81195],[2.36499,48.81405],[2.36513,48.81409],[2.36454,48.81506],[2.3647,48.81512],[2.3646,48.81526],[2.36461,48.8155],[2.36482,48.81557],[2.3642,48.8164],[2.37608,48.82016],[2.37788,48.82078],[2.38077,48.8217],[2.38152,48.82241],[2.38523,48.82373],[2.38694,48.82446],[2.38944,48.82535],[2.39007,48.82569],[2.39552,48.822],[2.3968,48.82127],[2.39753,48.82089],[2.39796,48.82069],[2.39907,48.82026],[2.40201,48.81923],[2.4058,48.81801],[2.40765,48.8175],[2.40812,48.81734],[2.40855,48.81714],[2.40901,48.81687],[2.4094,48.81656]]]}},
{"type":"Feature","properties":{"code":"94081","libelle":"Vitry-sur-Seine"},"geometry":{"type":"Polygon","coordinates":[[[2.3712,48.80403],[2.37579,48.80601],[2.37638,48.80518],[2.37929,48.80145],[2.38127,48.80246],[2.38212,48.80302],[2.3826,48.80327],[2.38293,48.80342],[2.38565,48.80432],[2.38661,48.80102],[2.38679,48.80049],[2.3869,48.80037],[2.38861,48.80045],[2.38889,48.80032],[2.38913,48.80006],[2.38964,48.80017],[2.38999,48.80011],[2.39034,48.79989],[2.39075,48.7998],[2.39174,48.7993],[2.39271,48.80044],[2.39311,48.80037],[2.39339,48.80053],[2.39361,48.80057],[2.39383,48.80036],[2.39428,48.80003],[2.39462,48.79992],[2.39559,48.8007],[2.39631,48.80134],[2.397,48.8022],[2.39711,48.80229],[2.39743,48.80242],[2.39829,48.80172],[2.39843,48.80181],[2.39901,48.80288],[2.39947,48.80373],[2.39956,48.80419],[2.3997,48.80432],[2.40039,48.80454],[2.40065,48.80403],[2.40222,48.80404],[2.40227,48.8043],[2.40395,48.80447],[2.40437,48.8045],[2.40497,48.80428],[2.4052,48.80458],[2.40522,48.80479],[2.40415,48.80812],[2.40901,48.80852],[2.40892,48.80754],[2.4093,48.80607],[2.41005,48.80474],[2.41101,48.80374],[2.41559,48.79981],[2.41934,48.79696],[2.42074,48.79569],[2.42162,48.79448],[2.42248,48.79268],[2.42283,48.79111],[2.42267,48.78954],[2.42202,48.78791],[2.41968,48.78413],[2.41678,48.77994],[2.41469,48.77723],[2.41446,48.77698],[2.41274,48.77568],[2.41253,48.77547],[2.41195,48.77446],[2.41187,48.77424],[2.40576,48.77385],[2.40581,48.77359],[2.40202,48.77296],[2.40033,48.77508],[2.39683,48.77446],[2.39685,48.77439],[2.39425,48.77387],[2.39374,48.77375],[2.39377,48.77367],[2.39235,48.77336],[2.39242,48.77304],[2.39238,48.77289],[2.39255,48.77236],[2.3886,48.77189],[2.3881,48.77321],[2.38623,48.77273],[2.38362,48.77227],[2.38188,48.77177],[2.38086,48.77207],[2.37913,48.7731],[2.37787,48.77222],[2.37766,48.77231],[2.37653,48.77151],[2.37694,48.77139],[2.37618,48.77076],[2.37431,48.77184],[2.37248,48.77091],[2.37258,48.77082],[2.37165,48.77037],[2.37107,48.77001],[2.36838,48.77214],[2.36778,48.7719],[2.36737,48.77888],[2.36738,48.77943],[2.37092,48.7807],[2.36997,48.78178],[2.3695,48.7824],[2.37189,48.78357],[2.37461,48.78564],[2.37687,48.78664],[2.37421,48.79003],[2.37437,48.79002],[2.37479,48.79013],[2.37369,48.79136],[2.37383,48.79146],[2.37384,48.79154],[2.3726,48.79279],[2.37212,48.79354],[2.37192,48.79416],[2.37081,48.79591],[2.37029,48.79654],[2.37158,48.79698],[2.37197,48.79716],[2.37003,48.79894],[2.36982,48.79918],[2.37093,48.79973],[2.36991,48.80079],[2.37121,48.80146],[2.37307,48.80252],[2.37154,48.8037],[2.3712,48.80403]]]}}
]}
